[{"OBJECT_NAME":"TIANHUI 1-04","OBJECT_ID":"2021-067A","EPOCH":"2026-03-09T22:48:57.841344","MEAN_MOTION":15.23549064,"ECCENTRICITY":8.015e-5,"INCLINATION":97.2864,"RA_OF_ASC_NODE":139.9989,"ARG_OF_PERICENTER":74.6542,"MEAN_ANOMALY":285.4784,"EPHEMERIS_TYPE":0,"CLASSIFICATION_TYPE":"U","NORAD_CAT_ID":49049,"ELEMENT_SET_NO":999,"REV_AT_EPOCH":25648,"BSTAR":1.6880446e-5,"MEAN_MOTION_DOT":3.36e-6,"MEAN_MOTION_DDOT":0},{"OBJECT_NAME":"STARLINK-30323","OBJECT_ID":"2023-122C","EPOCH":"2026-03-09T22:00:01.999584","MEAN_MOTION":15.17663714,"ECCENTRICITY":0.00017377,"INCLINATION":43,"RA_OF_ASC_NODE":79.518,"ARG_OF_PERICENTER":244.0947,"MEAN_ANOMALY":324.1358,"EPHEMERIS_TYPE":0,"CLASSIFICATION_TYPE":"U","NORAD_CAT_ID":57634,"ELEMENT_SET_NO":999,"REV_AT_EPOCH":572,"BSTAR":0.059578562,"MEAN_MOTION_DOT":0.01326411,"MEAN_MOTION_DDOT":0}]
